NORAD_CAT_ID,OBJECT_NAME,OBJECT_TYPE,EPOCH,MEAN_MOTION,ECCENTRICITY,INCLINATION,RA_OF_ASC_NODE,ARG_OF_PERICENTER,MEAN_ANOMALY,BSTAR,MEAN_MOTION_DOT,MEAN_MOTION_DDOT,TLE_LINE0,TLE_LINE1,TLE_LINE2,SEMIMAJOR_AXIS,PERIOD,APOGEE,PERIGEE,DECAYED
55416.0,STARLINK-5624,PAYLOAD,2023-10-23 21:07:02,14.98332403,0.0002988,69.9984,112.4766,270.4862,89.5955,1.0643e-05,3.4e-07,0.0,0 STARLINK-5624,1 55416U 23014AB  23296.87989176  .00000034  00000-0  10643-4 0  9993,2 55416  69.9984 112.4766 0002988 270.4862  89.5955 14.98332403 41576,6950.185,96.107,574.127,569.974,0.0
55416.0,STARLINK-5624,PAYLOAD,2023-10-24 11:32:15,14.98326227,0.0003016,69.9984,110.9614,271.0317,89.0496,1.9147e-05,1.35e-06,0.0,0 STARLINK-5624,1 55416U 23014AB  23297.48073533  .00000135  00000-0  19147-4 0  9992,2 55416  69.9984 110.9614 0003016 271.0317  89.0496 14.98326227 41668,6950.205,96.107,574.166,569.973,0.0
55416.0,STARLINK-5624,PAYLOAD,2023-10-25 14:46:32,14.98331273,0.0003071,69.9985,108.0999,270.8717,89.209,2.3495e-05,1.87e-06,0.0,0 STARLINK-5624,1 55416U 23014AB  23298.61565290  .00000187  00000-0  23495-4 0  9992,2 55416  69.9985 108.0999 0003071 270.8717  89.2090 14.98331273 40898,6950.189,96.107,574.188,569.92,0.0
55416.0,STARLINK-5624,PAYLOAD,2023-10-26 13:12:25,14.98331123,0.0003139,69.9988,105.7435,271.254,88.8259,6.5668e-05,6.91e-06,0.0,0 STARLINK-5624,1 55416U 23014AB  23299.55029046  .00000691  00000-0  65668-4 0  9998,2 55416  69.9988 105.7435 0003139 271.2540  88.8259 14.98331123 41970,6950.189,96.107,574.236,569.873,0.0
55416.0,STARLINK-5624,PAYLOAD,2023-10-26 18:00:49,14.98333661,0.000314,69.9986,105.2385,271.2671,88.8128,7.4573e-05,7.97e-06,0.0,0 STARLINK-5624,1 55416U 23014AB  23299.75056832  .00000797  00000-0  74573-4 0  9995,2 55416  69.9986 105.2385 0003140 271.2671  88.8128 14.98333661 41068,6950.182,96.107,574.229,569.864,0.0
55416.0,STARLINK-5624,PAYLOAD,2023-10-26 21:13:05,14.98334442,0.0003127,69.9987,104.9018,271.2052,88.8749,8.0219e-05,8.64e-06,0.0,0 STARLINK-5624,1 55416U 23014AB  23299.88408732  .00000864  00000-0  80219-4 0  9998,2 55416  69.9987 104.9018 0003127 271.2052  88.8749 14.98334442 42020,6950.179,96.107,574.217,569.871,0.0
55416.0,STARLINK-5624,PAYLOAD,2023-10-27 11:38:18,14.98331363,0.000293,69.9991,103.3868,272.2984,87.7839,-0.00014014,-1.765e-05,0.0,0 STARLINK-5624,1 55416U 23014AB  23300.48493564 -.00001765  00000-0 -14014-3 0  9996,2 55416  69.9991 103.3868 0002930 272.2984  87.7839 14.98331363 41179,6950.189,96.107,574.09,570.017,0.0
55416.0,STARLINK-5624,PAYLOAD,2023-10-27 21:15:09,14.98292437,0.0003318,69.9989,102.377,275.5789,84.4991,-0.0004076,-4.948e-05,0.0,0 STARLINK-5624,1 55416U 23014AB  23300.88553212 -.00004948  00000-0 -40760-3 0  9990,2 55416  69.9989 102.3770 0003318 275.5789  84.4991 14.98292437 42179,6950.309,96.109,574.48,569.868,0.0
55416.0,STARLINK-5624,PAYLOAD,2023-10-28 10:04:13,14.98312303,0.0004047,69.9986,101.0302,275.0767,84.993,-0.00017079,-2.13e-05,0.0,0 STARLINK-5624,1 55416U 23014AB  23301.41960022 -.00002130  00000-0 -17079-3 0  9999,2 55416  69.9986 101.0302 0004047 275.0767  84.9930 14.98312303 41312,6950.248,96.108,574.925,569.3,0.0
55416.0,STARLINK-5624,PAYLOAD,2023-10-28 13:16:28,14.98330659,0.0003072,69.9991,100.6936,279.5098,80.5714,1.08e-05,3.6e-07,0.0,0 STARLINK-5624,1 55416U 23014AB  23301.55310563  .00000036  00000-0  10800-4 0  9990,2 55416  69.9991 100.6936 0003072 279.5098  80.5714 14.98330659 42271,6950.191,96.107,574.191,569.921,0.0
55416.0,STARLINK-5624,PAYLOAD,2023-10-28 19:41:00,14.98332014,0.0003079,69.9988,100.0204,280.2023,79.8789,5.365e-05,5.47e-06,0.0,0 STARLINK-5624,1 55416U 23014AB  23301.82014497  .00000547  00000-0  53650-4 0  9994,2 55416  69.9988 100.0204 0003079 280.2023  79.8789 14.98332014 41373,6950.187,96.107,574.192,569.912,0.0
55416.0,STARLINK-5624,PAYLOAD,2023-10-28 21:17:08,14.98332253,0.0003083,69.9988,99.8519,280.3374,79.7437,5.6226e-05,5.78e-06,0.0,0 STARLINK-5624,1 55416U 23014AB  23301.88690482  .00000578  00000-0  56226-4 0  9990,2 55416  69.9988  99.8519 0003083 280.3374  79.7437 14.98332253 42322,6950.186,96.107,574.194,569.908,0.0
55416.0,STARLINK-5624,PAYLOAD,2023-10-29 13:18:28,14.98320197,0.0003534,69.9988,98.1679,281.9544,78.1219,0.00047775,5.611e-05,0.0,0 STARLINK-5624,1 55416U 23014AB  23302.55449799  .00005611  00000-0  47775-3 0  9999,2 55416  69.9988  98.1679 0003534 281.9544  78.1219 14.98320197 42424,6950.223,96.108,574.544,569.632,0.0
55416.0,STARLINK-5624,PAYLOAD,2023-10-29 19:43:00,14.98323612,0.0003086,69.9998,97.495,276.1243,83.9564,0.00051539,6.061e-05,0.0,0 STARLINK-5624,1 55416U 23014AB  23302.82153567  .00006061  00000-0  51539-3 0  9997,2 55416  69.9998  97.4950 0003086 276.1243  83.9564 14.98323612 42469,6950.213,96.107,574.222,569.933,0.0
55416.0,STARLINK-5624,PAYLOAD,2023-10-30 19:45:01,14.98344054,0.0003165,69.9997,94.9697,280.804,79.2763,-1.4306e-05,-2.64e-06,0.0,0 STARLINK-5624,1 55416U 23014AB  23303.82293374 -.00000264  00000-0 -14306-4 0  9992,2 55416  69.9997  94.9697 0003165 280.8040  79.2763 14.98344054 41677,6950.149,96.106,574.214,569.815,0.0
55416.0,STARLINK-5624,PAYLOAD,2023-10-31 03:45:42,14.98331743,0.0003167,70.0002,94.1281,282.8986,77.1819,5.8629e-05,6.07e-06,0.0,0 STARLINK-5624,1 55416U 23014AB  23304.15673777  .00000607  00000-0  58629-4 0  9993,2 55416  70.0002  94.1281 0003167 282.8986  77.1819 14.98331743 41727,6950.188,96.107,574.254,569.851,0.0
55416.0,STARLINK-5624,PAYLOAD,2023-10-31 13:22:30,14.98339824,0.0003085,69.9992,93.1181,279.7714,80.3096,-0.00012549,-1.59e-05,0.0,0 STARLINK-5624,1 55416U 23014AB  23304.55729401 -.00001590  00000-0 -12549-3 0  9997,2 55416  69.9992  93.1181 0003085 279.7714  80.3096 14.98339824 42725,6950.163,96.106,574.172,569.883,0.0
55416.0,STARLINK-5624,PAYLOAD,2023-10-31 19:47:02,14.9833192,0.0002907,70.0003,92.4448,277.0439,83.0389,1.9486e-05,1.4e-06,0.0,0 STARLINK-5624,1 55416U 23014AB  23304.82433370  .00000140  00000-0  19486-4 0  9990,2 55416  70.0003  92.4448 0002907 277.0439  83.0389 14.98331920 42764,6950.187,96.107,574.072,570.032,0.0
55416.0,STARLINK-5624,PAYLOAD,2023-11-01 03:47:42,14.98337186,0.0003005,70.0012,91.6035,278.8052,81.2767,-8.7842e-05,-1.141e-05,0.0,0 STARLINK-5624,1 55416U 23014AB  23305.15813093 -.00001141  00000-0 -87842-4 0  9996,2 55416  70.0012  91.6035 0003005 278.8052  81.2767 14.98337186 41878,6950.171,96.107,574.124,569.947,0.0
55416.0,STARLINK-5624,PAYLOAD,2023-11-01 13:24:30,14.98334692,0.0003185,69.9996,90.5938,278.1922,81.8876,7.5275e-06,-3e-08,0.0,0 STARLINK-5624,1 55416U 23014AB  23305.55868736 -.00000003  00000-0  75275-5 0  9997,2 55416  69.9996  90.5938 0003185 278.1922  81.8876 14.98334692 42871,6950.178,96.107,574.257,569.83,0.0
55416.0,STARLINK-5624,PAYLOAD,2023-11-01 19:49:02,14.98339238,0.0003141,69.9998,89.9206,277.3138,82.7664,2.9594e-05,2.6e-06,0.0,0 STARLINK-5624,1 55416U 23014AB  23305.82572281  .00000260  00000-0  29594-4 0  9990,2 55416  69.9998  89.9206 0003141 277.3138  82.7664 14.98339238 42916,6950.164,96.106,574.212,569.846,0.0
55416.0,STARLINK-5624,PAYLOAD,2023-11-02 11:50:24,14.98324225,0.0003294,69.9997,88.2373,278.0114,82.0671,-4.3332e-05,-6.1e-06,0.0,0 STARLINK-5624,1 55416U 23014AB  23306.49333405 -.00000610  00000-0 -43332-4 0  9994,2 55416  69.9997  88.2373 0003294 278.0114  82.0671 14.98324225 42071,6950.211,96.107,574.365,569.786,0.0
55416.0,STARLINK-5624,PAYLOAD,2023-11-02 13:26:32,14.98324228,0.0003305,69.9996,88.069,277.9462,82.1322,-4.2735e-05,-6.03e-06,0.0,0 STARLINK-5624,1 55416U 23014AB  23306.56009418 -.00000603  00000-0 -42735-4 0  9994,2 55416  69.9996  88.0690 0003305 277.9462  82.1322 14.98324228 43020,6950.211,96.107,574.373,569.779,0.0
55416.0,STARLINK-5624,PAYLOAD,2023-11-02 19:51:04,14.98329127,0.0003314,69.9995,87.3955,276.4063,83.6719,-1.8695e-05,-3.16e-06,0.0,0 STARLINK-5624,1 55416U 23014AB  23306.82713094 -.00000316  00000-0 -18695-4 0  9994,2 55416  69.9995  87.3955 0003314 276.4063  83.6719 14.98329127 43069,6950.196,96.107,574.364,569.757,0.0
55416.0,STARLINK-5624,PAYLOAD,2023-11-03 02:15:36,14.98335659,0.0003273,70.0002,86.7227,275.1251,84.9534,-0.00011625,-1.48e-05,0.0,0 STARLINK-5624,1 55416U 23014AB  23307.09416902 -.00001480  00000-0 -11625-3 0  9990,2 55416  70.0002  86.7227 0003273 275.1251  84.9534 14.98335659 42161,6950.175,96.107,574.315,569.766,0.0
55416.0,STARLINK-5624,PAYLOAD,2023-11-03 13:28:32,14.98333477,0.0003282,69.9999,85.5443,275.406,84.6725,1.3651e-05,7e-07,0.0,0 STARLINK-5624,1 55416U 23014AB  23307.56148746  .00000070  00000-0  13651-4 0  9994,2 55416  69.9999  85.5443 0003282 275.4060  84.6725 14.98333477 43178,6950.182,96.107,574.328,569.766,0.0
55416.0,STARLINK-5624,PAYLOAD,2023-11-03 18:16:56,14.98346253,0.0003105,69.9998,85.0396,273.9895,86.0909,-7.7233e-05,-1.015e-05,0.0,0 STARLINK-5624,1 55416U 23014AB  23307.76176048 -.00001015  00000-0 -77233-4 0  9990,2 55416  69.9998  85.0396 0003105 273.9895  86.0909 14.98346253 42267,6950.143,96.106,574.166,569.85,0.0
55416.0,STARLINK-5624,PAYLOAD,2023-11-04 10:18:17,14.98325313,0.0002985,70.0006,83.3572,275.8456,84.2363,8.9928e-05,9.8e-06,0.0,0 STARLINK-5624,1 55416U 23014AB  23308.42936979  .00000980  00000-0  89928-4 0  9993,2 55416  70.0006  83.3572 0002985 275.8456  84.2363 14.98325313 42365,6950.207,96.107,574.147,569.998,0.0
55416.0,STARLINK-5624,PAYLOAD,2023-11-04 15:06:41,14.98326912,0.0003151,70.0005,82.8521,276.8236,83.2565,6.7341e-05,7.11e-06,0.0,0 STARLINK-5624,1 55416U 23014AB  23308.62964978  .00000711  00000-0  67341-4 0  9992,2 55416  70.0005  82.8521 0003151 276.8236  83.2565 14.98326912 43332,6950.202,96.107,574.257,569.877,0.0
55416.0,STARLINK-5624,PAYLOAD,2023-11-04 18:18:57,14.98326532,0.0003135,70.0006,82.5157,276.0706,84.0096,6.4105e-05,6.72e-06,0.0,0 STARLINK-5624,1 55416U 23014AB  23308.76317022  .00000672  00000-0  64105-4 0  9990,2 55416  70.0006  82.5157 0003135 276.0706  84.0096 14.98326532 43359,6950.204,96.107,574.248,569.89,0.0
